[{"OBJECT_NAME":"STARLINK-32272","OBJECT_ID":"2024-152R","EPOCH":"2026-03-09T22:00:01.999584","MEAN_MOTION":15.83714016,"ECCENTRICITY":0.00160774,"INCLINATION":53.1399,"RA_OF_ASC_NODE":256.2284,"ARG_OF_PERICENTER":264.0544,"MEAN_ANOMALY":352.9882,"EPHEMERIS_TYPE":0,"CLASSIFICATION_TYPE":"U","NORAD_CAT_ID":60735,"ELEMENT_SET_NO":999,"REV_AT_EPOCH":592,"BSTAR":0.0014299197,"MEAN_MOTION_DOT":0.00337099,"MEAN_MOTION_DDOT":0},{"OBJECT_NAME":"STARLINK-36785","OBJECT_ID":"2026-034D","EPOCH":"2026-03-09T22:03:24.937632","MEAN_MOTION":15.81005381,"ECCENTRICITY":0.0001166,"INCLINATION":53.1587,"RA_OF_ASC_NODE":210.1814,"ARG_OF_PERICENTER":63.5803,"MEAN_ANOMALY":296.5339,"EPHEMERIS_TYPE":0,"CLASSIFICATION_TYPE":"U","NORAD_CAT_ID":67853,"ELEMENT_SET_NO":999,"REV_AT_EPOCH":397,"BSTAR":0.0015859754,"MEAN_MOTION_DOT":0.00326432,"MEAN_MOTION_DDOT":0}]
